NORAD_CAT_ID,OBJECT_NAME,OBJECT_TYPE,EPOCH,MEAN_MOTION,ECCENTRICITY,INCLINATION,RA_OF_ASC_NODE,ARG_OF_PERICENTER,MEAN_ANOMALY,BSTAR,MEAN_MOTION_DOT,MEAN_MOTION_DDOT,TLE_LINE0,TLE_LINE1,TLE_LINE2,SEMIMAJOR_AXIS,PERIOD,APOGEE,PERIGEE,DECAYED
53631.0,STARLINK-4599,PAYLOAD,2023-11-03 20:20:14,15.08839086,0.0001275,53.217,120.4352,88.741,271.3728,4.9188e-05,4.95e-06,0.0,0 STARLINK-4599,1 53631U 22104AV  23307.84739399  .00000495  00000-0  49188-4 0  9996,2 53631  53.2170 120.4352 0001275  88.7410 271.3728 15.08839086 65715,6917.883,95.438,540.63,538.866,0.0
53631.0,STARLINK-4599,PAYLOAD,2023-11-03 21:55:38,15.08839091,0.0001275,53.217,120.1378,88.5666,271.5472,5.1368e-05,5.3e-06,0.0,0 STARLINK-4599,1 53631U 22104AV  23307.91363427  .00000530  00000-0  51368-4 0  9992,2 53631  53.2170 120.1378 0001275  88.5666 271.5472 15.08839091 66413,6917.883,95.438,540.63,538.866,0.0
53631.0,STARLINK-4599,PAYLOAD,2023-11-04 10:38:43,15.08833872,0.0001264,53.2166,117.7585,90.0606,270.0531,8.3149e-05,1.035e-05,0.0,0 STARLINK-4599,1 53631U 22104AV  23308.44355696  .00001035  00000-0  83149-4 0  9993,2 53631  53.2166 117.7585 0001264  90.0606 270.0531 15.08833872 66499,6917.899,95.438,540.639,538.89,0.0
53631.0,STARLINK-4599,PAYLOAD,2023-11-04 18:35:38,15.08842296,0.0001297,53.2164,116.2721,85.265,274.849,0.00013794,1.908e-05,0.0,0 STARLINK-4599,1 53631U 22104AV  23308.77475368  .00001908  00000-0  13794-3 0  9995,2 53631  53.2164 116.2721 0001297  85.2650 274.8490 15.08842296 66546,6917.873,95.437,540.636,538.841,0.0
53631.0,STARLINK-4599,PAYLOAD,2023-11-05 04:07:57,15.08846078,0.0001312,53.2166,114.4878,86.7689,273.3453,0.00019089,2.752e-05,0.0,0 STARLINK-4599,1 53631U 22104AV  23309.17219225  .00002752  00000-0  19089-3 0  9999,2 53631  53.2166 114.4878 0001312  86.7689 273.3453 15.08846078 65912,6917.862,95.437,540.634,538.819,0.0
53631.0,STARLINK-4599,PAYLOAD,2023-11-05 10:29:31,15.0882449,0.0001385,53.2165,113.2986,95.2429,264.8721,0.00086338,0.00013474,0.0,0 STARLINK-4599,1 53631U 22104AV  23309.43716799  .00013474  00000-0  86338-3 0  9990,2 53631  53.2165 113.2986 0001385  95.2429 264.8721 15.08824490 65956,6917.928,95.439,540.751,538.835,0.0
53631.0,STARLINK-4599,PAYLOAD,2023-11-05 13:40:16,15.08843703,0.0001301,53.2164,112.7036,85.5883,274.5258,0.00020038,2.903e-05,0.0,0 STARLINK-4599,1 53631U 22104AV  23309.56963325  .00002903  00000-0  20038-3 0  9993,2 53631  53.2164 112.7036 0001301  85.5883 274.5258 15.08843703 66669,6917.869,95.437,540.634,538.834,0.0
53631.0,STARLINK-4599,PAYLOAD,2023-11-05 18:26:25,15.08851559,0.0001331,53.2162,111.8116,86.0782,274.0363,0.00030298,4.539e-05,0.0,0 STARLINK-4599,1 53631U 22104AV  23309.76834943  .00004539  00000-0  30298-3 0  9994,2 53631  53.2162 111.8116 0001331  86.0782 274.0363 15.08851559 66001,6917.845,95.437,540.631,538.789,0.0
53631.0,STARLINK-4599,PAYLOAD,2023-11-06 13:31:02,15.08858427,0.0001397,53.2154,108.2429,85.5251,274.5901,0.0003163,4.752e-05,0.0,0 STARLINK-4599,1 53631U 22104AV  23310.56322201  .00004752  00000-0  31630-3 0  9991,2 53631  53.2154 108.2429 0001397  85.5251 274.5901 15.08858427 66819,6917.824,95.436,540.655,538.723,0.0
53631.0,STARLINK-4599,PAYLOAD,2023-11-06 18:17:11,15.08861614,0.0001367,53.2156,107.3509,76.8324,283.282,0.00031896,4.795e-05,0.0,0 STARLINK-4599,1 53631U 22104AV  23310.76193873  .00004795  00000-0  31896-3 0  9995,2 53631  53.2156 107.3509 0001367  76.8324 283.2820 15.08861614 66843,6917.814,95.436,540.625,538.734,0.0
53631.0,STARLINK-4599,PAYLOAD,2023-11-07 03:49:30,15.08842252,0.0001376,53.2154,105.5671,86.4422,273.6727,-7.0878e-05,-1.416e-05,0.0,0 STARLINK-4599,1 53631U 22104AV  23311.15938416 -.00001416  00000-0 -70878-4 0  9992,2 53631  53.2154 105.5671 0001376  86.4422 273.6727 15.08842252 66214,6917.874,95.437,540.69,538.787,0.0
53631.0,STARLINK-4599,PAYLOAD,2023-11-07 10:11:04,15.0882247,0.0001768,53.2151,104.3776,88.1561,271.9633,-0.00037341,-6.223e-05,0.0,0 STARLINK-4599,1 53631U 22104AV  23311.42435450 -.00006223  00000-0 -37341-3 0  9990,2 53631  53.2151 104.3776 0001768  88.1561 271.9633 15.08822470 66253,6917.934,95.439,541.022,538.576,0.0
53631.0,STARLINK-4599,PAYLOAD,2023-11-08 03:40:19,15.08827112,0.000145,53.2171,101.1072,89.8507,270.2651,-4.841e-05,-1.058e-05,0.0,0 STARLINK-4599,1 53631U 22104AV  23312.15300036 -.00001058  00000-0 -48410-4 0  9993,2 53631  53.2171 101.1072 0001450  89.8507 270.2651 15.08827112 66367,6917.92,95.438,540.788,538.782,0.0
53631.0,STARLINK-4599,PAYLOAD,2023-11-08 13:12:38,15.08831315,0.000127,53.2171,99.3235,79.4655,280.648,4.4277e-05,4.17e-06,0.0,0 STARLINK-4599,1 53631U 22104AV  23312.55044249  .00000417  00000-0  44277-4 0  9991,2 53631  53.2171  99.3235 0001270  79.4655 280.6480 15.08831315 67114,6917.907,95.438,540.651,538.893,0.0
53631.0,STARLINK-4599,PAYLOAD,2023-11-08 16:23:24,15.08848188,0.0001444,53.217,98.7285,86.3507,273.765,0.0004083,6.218e-05,0.0,0 STARLINK-4599,1 53631U 22104AV  23312.68291693  .00006218  00000-0  40830-3 0  9997,2 53631  53.2170  98.7285 0001444  86.3507 273.7650 15.08848188 66440,6917.855,95.437,540.719,538.721,0.0
53631.0,STARLINK-4599,PAYLOAD,2023-11-09 09:52:39,15.08838883,0.0001678,53.2171,95.4583,89.4062,270.7122,0.00044798,6.849e-05,0.0,0 STARLINK-4599,1 53631U 22104AV  23313.41156668  .00006849  00000-0  44798-3 0  9998,2 53631  53.2171  95.4583 0001678  89.4062 270.7122 15.08838883 66559,6917.884,95.438,540.91,538.588,0.0
53631.0,STARLINK-4599,PAYLOAD,2023-11-09 14:38:48,15.08840163,0.0001798,53.2176,94.5663,92.1337,267.9861,0.00043565,6.652e-05,0.0,0 STARLINK-4599,1 53631U 22104AV  23313.61028503  .00006652  00000-0  43565-3 0  9999,2 53631  53.2176  94.5663 0001798  92.1337 267.9861 15.08840163 67274,6917.88,95.438,540.989,538.501,0.0
53631.0,STARLINK-4599,PAYLOAD,2023-11-09 16:14:11,15.08842315,0.0001711,53.2177,94.2675,95.4957,264.6231,0.00047755,7.321e-05,0.0,0 STARLINK-4599,1 53631U 22104AV  23313.67652367  .00007321  00000-0  47755-3 0  9995,2 53631  53.2177  94.2675 0001711  95.4957 264.6231 15.08842315 67281,6917.873,95.437,540.922,538.555,0.0
53631.0,STARLINK-4599,PAYLOAD,2023-11-10 14:29:35,15.08842408,0.000143,53.2179,90.1041,98.3555,261.76,0.00017877,2.559e-05,0.0,0 STARLINK-4599,1 53631U 22104AV  23314.60388239  .00002559  00000-0  17877-3 0  9993,2 53631  53.2179  90.1041 0001430  98.3555 261.7600 15.08842408 67426,6917.873,95.437,540.727,538.749,0.0
53631.0,STARLINK-4599,PAYLOAD,2023-11-10 16:04:58,15.08847138,0.0001531,53.2178,89.8072,90.4885,269.6282,9.2426e-05,1.184e-05,0.0,0 STARLINK-4599,1 53631U 22104AV  23314.67012033  .00001184  00000-0  92426-4 0  9993,2 53631  53.2178  89.8072 0001531  90.4885 269.6282 15.08847138 66747,6917.859,95.437,540.783,538.664,0.0
53631.0,STARLINK-4599,PAYLOAD,2023-11-11 09:34:13,15.08842564,0.0001709,53.2183,86.5392,104.6432,255.475,-3.986e-05,-9.22e-06,0.0,0 STARLINK-4599,1 53631U 22104AV  23315.39876290 -.00000922  00000-0 -39860-4 0  9990,2 53631  53.2183  86.5392 0001709 104.6432 255.4750 15.08842564 66858,6917.873,95.437,540.92,538.555,0.0
53631.0,STARLINK-4599,PAYLOAD,2023-11-11 14:20:22,15.08841626,0.0001609,53.2185,85.6471,98.249,261.8685,4.3628e-05,4.06e-06,0.0,0 STARLINK-4599,1 53631U 22104AV  23315.59748237  .00000406  00000-0  43628-4 0  9993,2 53631  53.2185  85.6471 0001609  98.2490 261.8685 15.08841626 67575,6917.875,95.437,540.854,538.627,0.0
53631.0,STARLINK-4599,PAYLOAD,2023-11-11 15:55:45,15.08844657,0.0001617,53.2181,85.3487,100.0999,260.0176,8.5261e-05,1.069e-05,0.0,0 STARLINK-4599,1 53631U 22104AV  23315.66372108  .00001069  00000-0  85261-4 0  9996,2 53631  53.2181  85.3487 0001617 100.0999 260.0176 15.08844657 67584,6917.866,95.437,540.85,538.613,0.0
53631.0,STARLINK-4599,PAYLOAD,2023-11-12 14:11:09,15.08836841,0.0001353,53.217,81.1842,91.1095,269.0052,3.6598e-05,2.95e-06,0.0,0 STARLINK-4599,1 53631U 22104AV  23316.59108534  .00000295  00000-0  36598-4 0  9998,2 53631  53.2170  81.1842 0001353  91.1095 269.0052 15.08836841 67729,6917.89,95.438,540.691,538.819,0.0
53631.0,STARLINK-4599,PAYLOAD,2023-11-13 07:40:23,15.08846285,0.0001318,53.217,77.9131,85.2967,274.8176,0.00013948,1.933e-05,0.0,0 STARLINK-4599,1 53631U 22104AV  23317.31972053  .00001933  00000-0  13948-3 0  9997,2 53631  53.2170  77.9131 0001318  85.2967 274.8176 15.08846285 67146,6917.861,95.437,540.638,538.814,0.0
53631.0,STARLINK-4599,PAYLOAD,2023-11-14 12:17:21,15.08834363,0.0001458,53.2173,72.5596,77.7202,282.3953,7.0385e-05,8.32e-06,0.0,0 STARLINK-4599,1 53631U 22104AV  23318.51204881  .00000832  00000-0  70385-4 0  9993,2 53631  53.2173  72.5596 0001458  77.7202 282.3953 15.08834363 67329,6917.898,95.438,540.771,538.754,0.0
53631.0,STARLINK-4599,PAYLOAD,2023-11-14 13:52:44,15.08829865,0.0001492,53.2178,72.2609,80.7622,279.3539,0.00028525,4.253e-05,0.0,0 STARLINK-4599,1 53631U 22104AV  23318.57829280  .00004253  00000-0  28525-3 0  9994,2 53631  53.2178  72.2609 0001492  80.7622 279.3539 15.08829865 68029,6917.911,95.438,540.809,538.744,0.0
53631.0,STARLINK-4599,PAYLOAD,2023-11-15 12:08:08,15.08805268,0.0002075,53.2181,68.1005,76.9345,283.1878,0.00080177,0.00012483,0.0,0 STARLINK-4599,1 53631U 22104AV  23319.50565766  .00012483  00000-0  80177-3 0  9999,2 53631  53.2181  68.1005 0002075  76.9345 283.1878 15.08805268 67472,6917.987,95.44,541.287,538.416,0.0
53631.0,STARLINK-4599,PAYLOAD,2023-11-16 00:51:12,15.08842448,0.0001353,53.2171,65.7236,68.1883,291.9253,0.00033913,5.114e-05,0.0,0 STARLINK-4599,1 53631U 22104AV  23320.03556480  .00005114  00000-0  33913-3 0  9991,2 53631  53.2171  65.7236 0001353  68.1883 291.9253 15.08842448 67552,6917.873,95.437,540.674,538.802,0.0
53631.0,STARLINK-4599,PAYLOAD,2023-11-16 16:45:04,15.08838056,0.000145,53.2171,62.7499,70.7416,289.3733,0.00016499,2.339e-05,0.0,0 STARLINK-4599,1 53631U 22104AV  23320.69796769  .00002339  00000-0  16499-3 0  9995,2 53631  53.2171  62.7499 0001450  70.7416 289.3733 15.08838056 67654,6917.886,95.438,540.754,538.748,0.0
